[{"OBJECT_NAME":"STARLINK-2221","OBJECT_ID":"2021-041U","EPOCH":"2026-03-09T10:10:16.115232","MEAN_MOTION":15.30211456,"ECCENTRICITY":0.00013188,"INCLINATION":53.1596,"RA_OF_ASC_NODE":140.8205,"ARG_OF_PERICENTER":78.4014,"MEAN_ANOMALY":281.7134,"EPHEMERIS_TYPE":0,"CLASSIFICATION_TYPE":"U","NORAD_CAT_ID":48571,"ELEMENT_SET_NO":999,"REV_AT_EPOCH":26505,"BSTAR":0.00030754127,"MEAN_MOTION_DOT":8.763e-5,"MEAN_MOTION_DDOT":0},{"OBJECT_NAME":"JINJUSAT-1B","OBJECT_ID":"2025-052A","EPOCH":"2026-03-09T15:55:38.242848","MEAN_MOTION":15.30194857,"ECCENTRICITY":0.00055504,"INCLINATION":97.4113,"RA_OF_ASC_NODE":325.4613,"ARG_OF_PERICENTER":82.193,"MEAN_ANOMALY":277.9941,"EPHEMERIS_TYPE":0,"CLASSIFICATION_TYPE":"U","NORAD_CAT_ID":63210,"ELEMENT_SET_NO":999,"REV_AT_EPOCH":5486,"BSTAR":0.00068430401,"MEAN_MOTION_DOT":0.00019955,"MEAN_MOTION_DDOT":0}]
